[{"OBJECT_NAME":"ONEWEB-0179","OBJECT_ID":"2021-031C","EPOCH":"2026-03-09T17:06:31.651776","MEAN_MOTION":13.14503091,"ECCENTRICITY":0.00017492,"INCLINATION":87.8988,"RA_OF_ASC_NODE":309.5417,"ARG_OF_PERICENTER":76.2174,"MEAN_ANOMALY":283.915,"EPHEMERIS_TYPE":0,"CLASSIFICATION_TYPE":"U","NORAD_CAT_ID":48212,"ELEMENT_SET_NO":999,"REV_AT_EPOCH":23526,"BSTAR":0.00026835726,"MEAN_MOTION_DOT":1.12e-6,"MEAN_MOTION_DDOT":0},{"OBJECT_NAME":"THORAD DELTA 1 DEB","OBJECT_ID":"1974-089DL","EPOCH":"2026-03-09T13:52:51.288096","MEAN_MOTION":13.46801476,"ECCENTRICITY":0.0202156,"INCLINATION":100.8782,"RA_OF_ASC_NODE":106.7696,"ARG_OF_PERICENTER":85.9738,"MEAN_ANOMALY":67.112,"EPHEMERIS_TYPE":0,"CLASSIFICATION_TYPE":"U","NORAD_CAT_ID":8784,"ELEMENT_SET_NO":999,"REV_AT_EPOCH":51895,"BSTAR":0.019065,"MEAN_MOTION_DOT":0.0001303,"MEAN_MOTION_DDOT":0}]
